[
    {
        "Altitude(m)": 617710.6751900786,
        "Argument of Periapsis(deg)": 0.0,
        "Eccentricity": 0.0,
        "Inclination(deg)": 60.0,
        "Latitude(deg)": -41.10275632648117,
        "Longitude(deg)": -160.0334287275743,
        "Mean Anomaly(deg)": -49.09089999999999,
        "RAAN(deg)": 330.0,
        "Satellite Name": "Test1 1471",
        "Satellite Number": 1471,
        "Semi-Major Axis(m)": 6980739.136638005,
        "Time(s)": 0
    },
    {
        "Altitude(m)": 617517.9738137955,
        "Argument of Periapsis(deg)": 0.00010418945913296404,
        "Eccentricity": 0.0,
        "Inclination(deg)": 60.0,
        "Latitude(deg)": -40.63696387478599,
        "Longitude(deg)": -159.53663345027462,
        "Mean Anomaly(deg)": -48.470793854538144,
        "RAAN(deg)": 329.9995799508602,
        "Satellite Name": "Test1 1471",
        "Satellite Number": 1471,
        "Semi-Major Axis(m)": 6980739.136638005,
        "Time(s)": 10
    }
]